UNKNOWN                 
1 87730U          25273.79477946  .00000143  00000+0  13435-3 0  9993
2 87730  82.9409 288.0859 0029373 204.6956 155.2796 13.74488315575315
UNKNOWN                 
1 87737U          25267.59847809  .00000066  00000+0  11261-3 0  9999
2 87737  99.3845 141.0812 0133907  36.2904 324.7236 13.72321547593005
UNKNOWN                 
1 87764U          25276.23481785  .00023887  00000+0  40704-2 0  9996
2 87764  65.6755 356.2987 0365488 113.9104 283.0310 14.33398562609018
UNKNOWN                 
1 87771U          25273.74855265  .00000162  00000+0  50392-3 0  9991
2 87771 100.7512 108.3124 0119294 167.5929 192.8165 13.19490234525462
UNKNOWN                 
1 87782U          25274.89766723  .00004877  00000+0  16215-1 0  9991
2 87782 102.3152 137.1379 0069409   0.4923 359.6231 12.99897146558659
UNKNOWN                 
1 87843U          25276.61288083  .00004133  00000+0  94101-2 0  9995
2 87843  99.6678  36.6805 0244531 170.0275 190.5821 13.16213341554933
UNKNOWN                 
1 87845U          25273.71464909  .00001638  00000+0  31111-2 0  9997
2 87845  98.8429 245.5836 0577918  61.8116 304.0118 12.88574044555800
UNKNOWN                 
1 87878U          25258.05928707  .00003392  00000+0  10897-2 0  9991
2 87878  99.1516  11.4382 0037212 166.4742 193.7450 14.39711934598536
UNKNOWN                 
1 87884U          25275.05313484  .00000584  00000+0  34514-3 0  9990
2 87884  98.7317  21.4249 0153012 269.9542  88.4093 14.05902639608299
UNKNOWN                 
1 87934U          25247.62789794  .00000121  00000+0  11412-3 0  9998
2 87934  82.9400  12.9501 0029762 313.4953  58.2350 13.73088260590711
UNKNOWN                 
1 87991U          25276.44916815  .00000365  00000+0  58898-3 0  9998
2 87991  28.6255 195.1618 0893575 278.7586  71.2874 12.34808233514301
UNKNOWN                 
1 89003U          25273.37017681  .00000529  00000+0  19029-3 0  9991
2 89003  74.0463 149.2204 0015959 227.4155 132.5653 14.36118312621018
UNKNOWN                 
1 89005U          25275.50370389  .00007502  00000+0  17250-2 0  9998
2 89005  97.8450 110.0045 0192187 250.7951 107.2358 14.44932451523806
