{
  "timestamp": "2025-10-04T12:28:05.039749",
  "data": [
    {
      "OBJECT_NAME": "UNKNOWN",
      "OBJECT_ID": "",
      "EPOCH": "2025-09-30T19:04:28.945344",
      "MEAN_MOTION": 13.74488315,
      "ECCENTRICITY": 0.0029373,
      "INCLINATION": 82.9409,
      "RA_OF_ASC_NODE": 288.0859,
      "ARG_OF_PERICENTER": 204.6956,
      "MEAN_ANOMALY": 155.2796,
      "EPHEMERIS_TYPE": 0,
      "CLASSIFICATION_TYPE": "U",
      "NORAD_CAT_ID": 87730,
      "ELEMENT_SET_NO": 999,
      "REV_AT_EPOCH": 57531,
      "BSTAR": 0.00013435,
      "MEAN_MOTION_DOT": 1.43e-6,
      "MEAN_MOTION_DDOT": 0
    },
    {
      "OBJECT_NAME": "UNKNOWN",
      "OBJECT_ID": "",
      "EPOCH": "2025-09-24T14:21:48.506976",
      "MEAN_MOTION": 13.72321547,
      "ECCENTRICITY": 0.0133907,
      "INCLINATION": 99.3845,
      "RA_OF_ASC_NODE": 141.0812,
      "ARG_OF_PERICENTER": 36.2904,
      "MEAN_ANOMALY": 324.7236,
      "EPHEMERIS_TYPE": 0,
      "CLASSIFICATION_TYPE": "U",
      "NORAD_CAT_ID": 87737,
      "ELEMENT_SET_NO": 999,
      "REV_AT_EPOCH": 59300,
      "BSTAR": 0.00011261,
      "MEAN_MOTION_DOT": 6.6e-7,
      "MEAN_MOTION_DDOT": 0
    },
    {
      "OBJECT_NAME": "UNKNOWN",
      "OBJECT_ID": "",
      "EPOCH": "2025-10-03T05:38:08.262240",
      "MEAN_MOTION": 14.33398562,
      "ECCENTRICITY": 0.0365488,
      "INCLINATION": 65.6755,
      "RA_OF_ASC_NODE": 356.2987,
      "ARG_OF_PERICENTER": 113.9104,
      "MEAN_ANOMALY": 283.031,
      "EPHEMERIS_TYPE": 0,
      "CLASSIFICATION_TYPE": "U",
      "NORAD_CAT_ID": 87764,
      "ELEMENT_SET_NO": 999,
      "REV_AT_EPOCH": 60901,
      "BSTAR": 0.0040704,
      "MEAN_MOTION_DOT": 0.00023887,
      "MEAN_MOTION_DDOT": 0
    },
    {
      "OBJECT_NAME": "UNKNOWN",
      "OBJECT_ID": "",
      "EPOCH": "2025-09-30T17:57:54.948960",
      "MEAN_MOTION": 13.19490234,
      "ECCENTRICITY": 0.0119294,
      "INCLINATION": 100.7512,
      "RA_OF_ASC_NODE": 108.3124,
      "ARG_OF_PERICENTER": 167.5929,
      "MEAN_ANOMALY": 192.8165,
      "EPHEMERIS_TYPE": 0,
      "CLASSIFICATION_TYPE": "U",
      "NORAD_CAT_ID": 87771,
      "ELEMENT_SET_NO": 999,
      "REV_AT_EPOCH": 52546,
      "BSTAR": 0.00050392,
      "MEAN_MOTION_DOT": 1.62e-6,
      "MEAN_MOTION_DDOT": 0
    },
    {
      "OBJECT_NAME": "UNKNOWN",
      "OBJECT_ID": "",
      "EPOCH": "2025-10-01T21:32:38.448672",
      "MEAN_MOTION": 12.99897146,
      "ECCENTRICITY": 0.0069409,
      "INCLINATION": 102.3152,
      "RA_OF_ASC_NODE": 137.1379,
      "ARG_OF_PERICENTER": 0.4923,
      "MEAN_ANOMALY": 359.6231,
      "EPHEMERIS_TYPE": 0,
      "CLASSIFICATION_TYPE": "U",
      "NORAD_CAT_ID": 87782,
      "ELEMENT_SET_NO": 999,
      "REV_AT_EPOCH": 55865,
      "BSTAR": 0.016215,
      "MEAN_MOTION_DOT": 4.877e-5,
      "MEAN_MOTION_DDOT": 0
    },
    {
      "OBJECT_NAME": "UNKNOWN",
      "OBJECT_ID": "",
      "EPOCH": "2025-10-03T14:42:32.903712",
      "MEAN_MOTION": 13.16213341,
      "ECCENTRICITY": 0.0244531,
      "INCLINATION": 99.6678,
      "RA_OF_ASC_NODE": 36.6805,
      "ARG_OF_PERICENTER": 170.0275,
      "MEAN_ANOMALY": 190.5821,
      "EPHEMERIS_TYPE": 0,
      "CLASSIFICATION_TYPE": "U",
      "NORAD_CAT_ID": 87843,
      "ELEMENT_SET_NO": 999,
      "REV_AT_EPOCH": 55493,
      "BSTAR": 0.0094101,
      "MEAN_MOTION_DOT": 4.133e-5,
      "MEAN_MOTION_DDOT": 0
    },
    {
      "OBJECT_NAME": "UNKNOWN",
      "OBJECT_ID": "",
      "EPOCH": "2025-09-30T17:09:05.681376",
      "MEAN_MOTION": 12.88574044,
      "ECCENTRICITY": 0.0577918,
      "INCLINATION": 98.8429,
      "RA_OF_ASC_NODE": 245.5836,
      "ARG_OF_PERICENTER": 61.8116,
      "MEAN_ANOMALY": 304.0118,
      "EPHEMERIS_TYPE": 0,
      "CLASSIFICATION_TYPE": "U",
      "NORAD_CAT_ID": 87845,
      "ELEMENT_SET_NO": 999,
      "REV_AT_EPOCH": 55580,
      "BSTAR": 0.0031111,
      "MEAN_MOTION_DOT": 1.638e-5,
      "MEAN_MOTION_DDOT": 0
    },
    {
      "OBJECT_NAME": "UNKNOWN",
      "OBJECT_ID": "",
      "EPOCH": "2025-09-15T01:25:22.402848",
      "MEAN_MOTION": 14.39711934,
      "ECCENTRICITY": 0.0037212,
      "INCLINATION": 99.1516,
      "RA_OF_ASC_NODE": 11.4382,
      "ARG_OF_PERICENTER": 166.4742,
      "MEAN_ANOMALY": 193.745,
      "EPHEMERIS_TYPE": 0,
      "CLASSIFICATION_TYPE": "U",
      "NORAD_CAT_ID": 87878,
      "ELEMENT_SET_NO": 999,
      "REV_AT_EPOCH": 59853,
      "BSTAR": 0.0010897,
      "MEAN_MOTION_DOT": 3.392e-5,
      "MEAN_MOTION_DDOT": 0
    },
    {
      "OBJECT_NAME": "UNKNOWN",
      "OBJECT_ID": "",
      "EPOCH": "2025-10-02T01:16:30.850176",
      "MEAN_MOTION": 14.05902639,
      "ECCENTRICITY": 0.0153012,
      "INCLINATION": 98.7317,
      "RA_OF_ASC_NODE": 21.4249,
      "ARG_OF_PERICENTER": 269.9542,
      "MEAN_ANOMALY": 88.4093,
      "EPHEMERIS_TYPE": 0,
      "CLASSIFICATION_TYPE": "U",
      "NORAD_CAT_ID": 87884,
      "ELEMENT_SET_NO": 999,
      "REV_AT_EPOCH": 60829,
      "BSTAR": 0.00034514,
      "MEAN_MOTION_DOT": 5.84e-6,
      "MEAN_MOTION_DDOT": 0
    },
    {
      "OBJECT_NAME": "UNKNOWN",
      "OBJECT_ID": "",
      "EPOCH": "2025-09-04T15:04:10.382016",
      "MEAN_MOTION": 13.7308826,
      "ECCENTRICITY": 0.0029762,
      "INCLINATION": 82.94,
      "RA_OF_ASC_NODE": 12.9501,
      "ARG_OF_PERICENTER": 313.4953,
      "MEAN_ANOMALY": 58.235,
      "EPHEMERIS_TYPE": 0,
      "CLASSIFICATION_TYPE": "U",
      "NORAD_CAT_ID": 87934,
      "ELEMENT_SET_NO": 999,
      "REV_AT_EPOCH": 59071,
      "BSTAR": 0.00011412,
      "MEAN_MOTION_DOT": 1.21e-6,
      "MEAN_MOTION_DDOT": 0
    },
    {
      "OBJECT_NAME": "UNKNOWN",
      "OBJECT_ID": "",
      "EPOCH": "2025-10-03T10:46:48.128160",
      "MEAN_MOTION": 12.34808233,
      "ECCENTRICITY": 0.0893575,
      "INCLINATION": 28.6255,
      "RA_OF_ASC_NODE": 195.1618,
      "ARG_OF_PERICENTER": 278.7586,
      "MEAN_ANOMALY": 71.2874,
      "EPHEMERIS_TYPE": 0,
      "CLASSIFICATION_TYPE": "U",
      "NORAD_CAT_ID": 87991,
      "ELEMENT_SET_NO": 999,
      "REV_AT_EPOCH": 51430,
      "BSTAR": 0.00058898,
      "MEAN_MOTION_DOT": 3.65e-6,
      "MEAN_MOTION_DDOT": 0
    },
    {
      "OBJECT_NAME": "UNKNOWN",
      "OBJECT_ID": "",
      "EPOCH": "2025-09-30T08:53:03.276384",
      "MEAN_MOTION": 14.36118312,
      "ECCENTRICITY": 0.0015959,
      "INCLINATION": 74.0463,
      "RA_OF_ASC_NODE": 149.2204,
      "ARG_OF_PERICENTER": 227.4155,
      "MEAN_ANOMALY": 132.5653,
      "EPHEMERIS_TYPE": 0,
      "CLASSIFICATION_TYPE": "U",
      "NORAD_CAT_ID": 89003,
      "ELEMENT_SET_NO": 999,
      "REV_AT_EPOCH": 62101,
      "BSTAR": 0.00019029,
      "MEAN_MOTION_DOT": 5.29e-6,
      "MEAN_MOTION_DDOT": 0
    },
    {
      "OBJECT_NAME": "UNKNOWN",
      "OBJECT_ID": "",
      "EPOCH": "2025-10-02T12:05:20.016096",
      "MEAN_MOTION": 14.44932451,
      "ECCENTRICITY": 0.0192187,
      "INCLINATION": 97.845,
      "RA_OF_ASC_NODE": 110.0045,
      "ARG_OF_PERICENTER": 250.7951,
      "MEAN_ANOMALY": 107.2358,
      "EPHEMERIS_TYPE": 0,
      "CLASSIFICATION_TYPE": "U",
      "NORAD_CAT_ID": 89005,
      "ELEMENT_SET_NO": 999,
      "REV_AT_EPOCH": 52380,
      "BSTAR": 0.001725,
      "MEAN_MOTION_DOT": 7.502e-5,
      "MEAN_MOTION_DDOT": 0
    }
  ]
}
